ONEWEB-0291             
1 49081U 21075G   25260.93211499 -.00000214  00000+0 -58373-3 0  9997
2 49081  87.9055  59.9992 0002067 100.0234 260.1131 13.17648814197752
ONEWEB-0293             
1 49082U 21075H   25260.88147957 -.00000226  00000+0 -61436-3 0  9996
2 49082  87.9042  60.0381 0001718  97.9184 262.2143 13.17648513197778
ONEWEB-0294             
1 49083U 21075J   25260.93404708  .00000407  00000+0  10969-2 0  9996
2 49083  87.8908  44.7428 0001757 113.2273 246.9040 13.12443159198864
ONEWEB-0295             
1 49084U 21075K   25260.88064324  .00000059  00000+0  11856-3 0  9997
2 49084  87.9052  60.0419 0002093  97.9839 262.1530 13.17648076197736
ONEWEB-0296             
1 49085U 21075L   25260.91456249  .00000685  00000+0  18696-2 0  9996
2 49085  87.8900  44.7523 0002073 108.7556 251.3798 13.12450720198861
ONEWEB-0297             
1 49086U 21075M   25260.94538589  .00000131  00000+0  32975-3 0  9991
2 49086  87.8901  44.7835 0001771  95.2343 264.8987 13.12443260199475
ONEWEB-0298             
1 49087U 21075N   25260.88499107 -.00000042  00000+0 -14027-3 0  9998
2 49087  87.9049  60.0354 0001727  91.9259 268.2070 13.17647180197760
ONEWEB-0299             
1 49088U 21075P   25260.88654255 -.00000165  00000+0 -45717-3 0  9992
2 49088  87.9053  59.9923 0001965  90.3086 269.8271 13.17647731197740
